SOYUZ-MS 28             
1 66664U 25275A   26198.83085672  .00003846  00000+0  77850-4 0  9995
2 66664  51.6316 148.4431 0006791 307.8623  52.1750 15.49035972575427
CREW DRAGON 12          
1 67796U 26031A   26198.83085672  .00003846  00000+0  77850-4 0  9993
2 67796  51.6316 148.4431 0006791 307.8623  52.1750 15.49035972575659
SHENZHOU-23 (SZ-23)     
1 69180U 26113A   26198.52240887  .00001129  00000+0  18813-4 0  9996
2 69180  41.4691 137.7269 0001921 301.5742  58.4908 15.58143309297372
