{"fetched_at":"2026-07-18T06:27:54.277Z","source":"https://celestrak.org/NORAD/elements/gp.php?GROUP=stations&FORMAT=JSON","constellation":"crewed-vehicles","records":[{"OBJECT_NAME":"SOYUZ-MS 28","OBJECT_ID":"2025-275A","EPOCH":"2026-07-17T19:56:26.020608","CLASSIFICATION_TYPE":"U","MEAN_MOTION":15.49035972,"ECCENTRICITY":0.00067917,"INCLINATION":51.6316,"RA_OF_ASC_NODE":148.4431,"ARG_OF_PERICENTER":307.8623,"MEAN_ANOMALY":52.175,"EPHEMERIS_TYPE":0,"NORAD_CAT_ID":66664,"ELEMENT_SET_NO":999,"REV_AT_EPOCH":57542,"BSTAR":0.000077849885,"MEAN_MOTION_DOT":0.00003846,"MEAN_MOTION_DDOT":0},{"OBJECT_NAME":"CREW DRAGON 12","OBJECT_ID":"2026-031A","EPOCH":"2026-07-17T19:56:26.020608","CLASSIFICATION_TYPE":"U","MEAN_MOTION":15.49035972,"ECCENTRICITY":0.00067917,"INCLINATION":51.6316,"RA_OF_ASC_NODE":148.4431,"ARG_OF_PERICENTER":307.8623,"MEAN_ANOMALY":52.175,"EPHEMERIS_TYPE":0,"NORAD_CAT_ID":67796,"ELEMENT_SET_NO":999,"REV_AT_EPOCH":57565,"BSTAR":0.000077849885,"MEAN_MOTION_DOT":0.00003846,"MEAN_MOTION_DDOT":0},{"OBJECT_NAME":"SHENZHOU-23 (SZ-23)","OBJECT_ID":"2026-113A","EPOCH":"2026-07-17T12:32:16.126368","CLASSIFICATION_TYPE":"U","MEAN_MOTION":15.58143309,"ECCENTRICITY":0.00019213,"INCLINATION":41.4691,"RA_OF_ASC_NODE":137.7269,"ARG_OF_PERICENTER":301.5742,"MEAN_ANOMALY":58.4908,"EPHEMERIS_TYPE":0,"NORAD_CAT_ID":69180,"ELEMENT_SET_NO":999,"REV_AT_EPOCH":29737,"BSTAR":0.000018813159,"MEAN_MOTION_DOT":0.00001129,"MEAN_MOTION_DDOT":0}]}
